{
  "type": "FeatureCollection",
  "features": [
    {
      "type": "Feature",
      "properties": {
        "norad_id": 66947,
        "name": "STARLINK-36089",
        "group": "last-30-days",
        "lat": 52.7154114623343,
        "lon": 85.86656520281507,
        "alt_km": 339.3970577518712,
        "timestamp": "2025-12-21T14:40:46.636025+00:00",
        "meta_object_name": "STARLINK-36089",
        "meta_object_id": "2025-286Y",
        "meta_epoch": "2025-12-21T06:00:00.999648",
        "meta_mean_motion": 15.74183903,
        "meta_eccentricity": 7.644e-05,
        "meta_inclination": 53.1571,
        "meta_ra_of_asc_node": 7.6586,
        "meta_arg_of_pericenter": 88.1817,
        "meta_mean_anomaly": 105.1821,
        "meta_ephemeris_type": 0,
        "meta_classification_type": "U",
        "meta_norad_cat_id": 66947,
        "meta_element_set_no": 999,
        "meta_rev_at_epoch": 336,
        "meta_bstar": -0.00018701274,
        "meta_mean_motion_dot": -0.00027919,
        "meta_mean_motion_ddot": 0,
        "tle_line1": "1 66947U 25286Y   25355.25001157 -.00027919  00000+0 -18701-3 0  9995",
        "tle_line2": "2 66947  53.1571   7.6586 0000764  88.1817 105.1821 15.74183903  3369"
      },
      "geometry": {
        "type": "Point",
        "coordinates": [
          85.86656520281507,
          52.7154114623343
        ]
      }
    },
    {
      "type": "Feature",
      "properties": {
        "norad_id": 66948,
        "name": "STARLINK-36116",
        "group": "last-30-days",
        "lat": 52.40907969732181,
        "lon": 82.76331968758531,
        "alt_km": 339.5001557492833,
        "timestamp": "2025-12-21T14:40:46.636035+00:00",
        "meta_object_name": "STARLINK-36116",
        "meta_object_id": "2025-286Z",
        "meta_epoch": "2025-12-21T06:00:00.999648",
        "meta_mean_motion": 15.7420898,
        "meta_eccentricity": 6.902e-05,
        "meta_inclination": 53.1574,
        "meta_ra_of_asc_node": 7.663,
        "meta_arg_of_pericenter": 85.6354,
        "meta_mean_anomaly": 105.8039,
        "meta_ephemeris_type": 0,
        "meta_classification_type": "U",
        "meta_norad_cat_id": 66948,
        "meta_element_set_no": 999,
        "meta_rev_at_epoch": 336,
        "meta_bstar": -0.00046011,
        "meta_mean_motion_dot": -0.00067531,
        "meta_mean_motion_ddot": 0,
        "tle_line1": "1 66948U 25286Z   25355.25001157 -.00067531  00000+0 -46011-3 0  9995",
        "tle_line2": "2 66948  53.1574   7.6630 0000690  85.6354 105.8039 15.74208980  3360"
      },
      "geometry": {
        "type": "Point",
        "coordinates": [
          82.76331968758531,
          52.40907969732181
        ]
      }
    },
    {
      "type": "Feature",
      "properties": {
        "norad_id": 66949,
        "name": "STARLINK-36096",
        "group": "last-30-days",
        "lat": 52.939605837714055,
        "lon": 89.00615200273609,
        "alt_km": 339.29244541805565,
        "timestamp": "2025-12-21T14:40:46.636045+00:00",
        "meta_object_name": "STARLINK-36096",
        "meta_object_id": "2025-286AA",
        "meta_epoch": "2025-12-21T06:00:00.999648",
        "meta_mean_motion": 15.74182961,
        "meta_eccentricity": 9.175e-05,
        "meta_inclination": 53.1571,
        "meta_ra_of_asc_node": 7.6551,
        "meta_arg_of_pericenter": 95.0121,
        "meta_mean_anomaly": 100.267,
        "meta_ephemeris_type": 0,
        "meta_classification_type": "U",
        "meta_norad_cat_id": 66949,
        "meta_element_set_no": 999,
        "meta_rev_at_epoch": 336,
        "meta_bstar": -0.00024471788,
        "meta_mean_motion_dot": -0.00036304,
        "meta_mean_motion_ddot": 0,
        "tle_line1": "1 66949U 25286AA  25355.25001157 -.00036304  00000+0 -24472-3 0  9997",
        "tle_line2": "2 66949  53.1571   7.6551 0000917  95.0121 100.2670 15.74182961  3369"
      },
      "geometry": {
        "type": "Point",
        "coordinates": [
          89.00615200273609,
          52.939605837714055
        ]
      }
    },
    {
      "type": "Feature",
      "properties": {
        "norad_id": 66950,
        "name": "STARLINK-36111",
        "group": "last-30-days",
        "lat": 53.136091903902305,
        "lon": 95.3559020725652,
        "alt_km": 338.9908472505149,
        "timestamp": "2025-12-21T14:40:46.636057+00:00",
        "meta_object_name": "STARLINK-36111",
        "meta_object_id": "2025-286AB",
        "meta_epoch": "2025-12-21T06:00:00.999648",
        "meta_mean_motion": 15.74199673,
        "meta_eccentricity": 0.0001258,
        "meta_inclination": 53.1572,
        "meta_ra_of_asc_node": 7.6469,
        "meta_arg_of_pericenter": 107.6706,
        "meta_mean_anomaly": 91.4023,
        "meta_ephemeris_type": 0,
        "meta_classification_type": "U",
        "meta_norad_cat_id": 66950,
        "meta_element_set_no": 999,
        "meta_rev_at_epoch": 336,
        "meta_bstar": -0.00013141969,
        "meta_mean_motion_dot": -0.0001984,
        "meta_mean_motion_ddot": 0,
        "tle_line1": "1 66950U 25286AB  25355.25001157 -.00019840  00000+0 -13142-3 0  9997",
        "tle_line2": "2 66950  53.1572   7.6469 0001258 107.6706  91.4023 15.74199673  3369"
      },
      "geometry": {
        "type": "Point",
        "coordinates": [
          95.3559020725652,
          53.136091903902305
        ]
      }
    },
    {
      "type": "Feature",
      "properties": {
        "norad_id": 66951,
        "name": "STARLINK-35999",
        "group": "last-30-days",
        "lat": 53.10577077290966,
        "lon": 98.59146653529963,
        "alt_km": 339.23277126879657,
        "timestamp": "2025-12-21T14:40:46.636067+00:00",
        "meta_object_name": "STARLINK-35999",
        "meta_object_id": "2025-286AC",
        "meta_epoch": "2025-12-21T06:00:00.999648",
        "meta_mean_motion": 15.74216876,
        "meta_eccentricity": 9.446e-05,
        "meta_inclination": 53.1574,
        "meta_ra_of_asc_node": 7.6429,
        "meta_arg_of_pericenter": 102.148,
        "meta_mean_anomaly": 98.8654,
        "meta_ephemeris_type": 0,
        "meta_classification_type": "U",
        "meta_norad_cat_id": 66951,
        "meta_element_set_no": 999,
        "meta_rev_at_epoch": 336,
        "meta_bstar": -0.00048384166,
        "meta_mean_motion_dot": -0.00070979,
        "meta_mean_motion_ddot": 0,
        "tle_line1": "1 66951U 25286AC  25355.25001157 -.00070979  00000+0 -48384-3 0  9994",
        "tle_line2": "2 66951  53.1574   7.6429 0000944 102.1480  98.8654 15.74216876  3364"
      },
      "geometry": {
        "type": "Point",
        "coordinates": [
          98.59146653529963,
          53.10577077290966
        ]
      }
    },
    {
      "type": "Feature",
      "properties": {
        "norad_id": 66952,
        "name": "STARLINK-36122",
        "group": "last-30-days",
        "lat": 53.081482162115854,
        "lon": 92.2031980099906,
        "alt_km": 339.1837493217172,
        "timestamp": "2025-12-21T14:40:46.636077+00:00",
        "meta_object_name": "STARLINK-36122",
        "meta_object_id": "2025-286AD",
        "meta_epoch": "2025-12-21T06:00:00.999648",
        "meta_mean_motion": 15.74193804,
        "meta_eccentricity": 0.0001018,
        "meta_inclination": 53.1575,
        "meta_ra_of_asc_node": 7.6512,
        "meta_arg_of_pericenter": 83.6611,
        "meta_mean_anomaly": 113.5334,
        "meta_ephemeris_type": 0,
        "meta_classification_type": "U",
        "meta_norad_cat_id": 66952,
        "meta_element_set_no": 999,
        "meta_rev_at_epoch": 336,
        "meta_bstar": -0.00030517359,
        "meta_mean_motion_dot": -0.00045093,
        "meta_mean_motion_ddot": 0,
        "tle_line1": "1 66952U 25286AD  25355.25001157 -.00045093  00000+0 -30517-3 0  9993",
        "tle_line2": "2 66952  53.1575   7.6512 0001018  83.6611 113.5334 15.74193804  3366"
      },
      "geometry": {
        "type": "Point",
        "coordinates": [
          92.2031980099906,
          53.081482162115854
        ]
      }
    },
    {
      "type": "Feature",
      "properties": {
        "norad_id": 66953,
        "name": "HULIANWANG DIGUI-114",
        "group": "last-30-days",
        "lat": -72.56477823827704,
        "lon": -28.32184186391331,
        "alt_km": 1022.6968425629757,
        "timestamp": "2025-12-21T14:40:46.636089+00:00",
        "meta_object_name": "HULIANWANG DIGUI-114",
        "meta_object_id": "2025-287A",
        "meta_epoch": "2025-12-20T09:09:14.655168",
        "meta_mean_motion": 13.66161866,
        "meta_eccentricity": 0.00096738,
        "meta_inclination": 86.496,
        "meta_ra_of_asc_node": 343.3747,
        "meta_arg_of_pericenter": 185.0352,
        "meta_mean_anomaly": 175.071,
        "meta_ephemeris_type": 0,
        "meta_classification_type": "U",
        "meta_norad_cat_id": 66953,
        "meta_element_set_no": 999,
        "meta_rev_at_epoch": 157,
        "meta_bstar": 3.033618e-06,
        "meta_mean_motion_dot": 1.9e-07,
        "meta_mean_motion_ddot": 0,
        "tle_line1": "1 66953U 25287A   25354.38141962  .00000019  00000+0  30336-5 0  9995",
        "tle_line2": "2 66953  86.4960 343.3747 0009673 185.0352 175.0710 13.66161866  1572"
      },
      "geometry": {
        "type": "Point",
        "coordinates": [
          -28.32184186391331,
          -72.56477823827704
        ]
      }
    }
  ]
}